[{"OBJECT_NAME":"IRIDIUM 33 DEB","OBJECT_ID":"1997-051GC","EPOCH":"2026-03-14T17:01:40.147680","MEAN_MOTION":14.43387866,"ECCENTRICITY":0.00305253,"INCLINATION":86.3474,"RA_OF_ASC_NODE":332.8016,"ARG_OF_PERICENTER":182.5259,"MEAN_ANOMALY":206.2204,"EPHEMERIS_TYPE":0,"CLASSIFICATION_TYPE":"U","NORAD_CAT_ID":34487,"ELEMENT_SET_NO":999,"REV_AT_EPOCH":89575,"BSTAR":0.00020158218,"MEAN_MOTION_DOT":7.04e-6,"MEAN_MOTION_DDOT":0},{"OBJECT_NAME":"IRIDIUM 33 DEB","OBJECT_ID":"1997-051GH","EPOCH":"2026-03-14T09:00:32.079456","MEAN_MOTION":14.27869911,"ECCENTRICITY":0.01839585,"INCLINATION":86.4713,"RA_OF_ASC_NODE":297.533,"ARG_OF_PERICENTER":304.4987,"MEAN_ANOMALY":179.6913,"EPHEMERIS_TYPE":0,"CLASSIFICATION_TYPE":"U","NORAD_CAT_ID":34492,"ELEMENT_SET_NO":999,"REV_AT_EPOCH":86365,"BSTAR":0.0035690532,"MEAN_MOTION_DOT":0.00010602,"MEAN_MOTION_DDOT":0},{"OBJECT_NAME":"IRIDIUM 33 DEB","OBJECT_ID":"1997-051GN","EPOCH":"2026-03-14T19:31:51.011040","MEAN_MOTION":14.27811976,"ECCENTRICITY":0.00816192,"INCLINATION":86.2824,"RA_OF_ASC_NODE":13.0516,"ARG_OF_PERICENTER":42.6537,"MEAN_ANOMALY":346.7488,"EPHEMERIS_TYPE":0,"CLASSIFICATION_TYPE":"U","NORAD_CAT_ID":34497,"ELEMENT_SET_NO":999,"REV_AT_EPOCH":88197,"BSTAR":0.00099940956,"MEAN_MOTION_DOT":2.577e-5,"MEAN_MOTION_DDOT":0},{"OBJECT_NAME":"IRIDIUM 33 DEB","OBJECT_ID":"1997-051GZ","EPOCH":"2026-03-14T23:11:31.110720","MEAN_MOTION":14.39170517,"ECCENTRICITY":0.00619275,"INCLINATION":86.3667,"RA_OF_ASC_NODE":63.4913,"ARG_OF_PERICENTER":229.5774,"MEAN_ANOMALY":130.0013,"EPHEMERIS_TYPE":0,"CLASSIFICATION_TYPE":"U","NORAD_CAT_ID":34508,"ELEMENT_SET_NO":999,"REV_AT_EPOCH":88635,"BSTAR":0.0012076084,"MEAN_MOTION_DOT":3.842e-5,"MEAN_MOTION_DDOT":0},{"OBJECT_NAME":"IRIDIUM 33 DEB","OBJECT_ID":"1997-051HN","EPOCH":"2026-03-15T06:15:47.398464","MEAN_MOTION":14.64760482,"ECCENTRICITY":0.00033885,"INCLINATION":86.3834,"RA_OF_ASC_NODE":349.7819,"ARG_OF_PERICENTER":358.1125,"MEAN_ANOMALY":2.0074,"EPHEMERIS_TYPE":0,"CLASSIFICATION_TYPE":"U","NORAD_CAT_ID":34521,"ELEMENT_SET_NO":999,"REV_AT_EPOCH":89826,"BSTAR":0.001441565,"MEAN_MOTION_DOT":7.705e-5,"MEAN_MOTION_DDOT":0},{"OBJECT_NAME":"IRIDIUM 33 DEB","OBJECT_ID":"1997-051HS","EPOCH":"2026-03-15T06:36:32.574528","MEAN_MOTION":14.43190466,"ECCENTRICITY":0.00057741,"INCLINATION":86.3778,"RA_OF_ASC_NODE":7.3385,"ARG_OF_PERICENTER":124.7609,"MEAN_ANOMALY":359.5576,"EPHEMERIS_TYPE":0,"CLASSIFICATION_TYPE":"U","NORAD_CAT_ID":34525,"ELEMENT_SET_NO":999,"REV_AT_EPOCH":89422,"BSTAR":0.00037659502,"MEAN_MOTION_DOT":1.285e-5,"MEAN_MOTION_DDOT":0},{"OBJECT_NAME":"IRIDIUM 33 DEB","OBJECT_ID":"1997-051HW","EPOCH":"2026-03-15T05:10:09.950016","MEAN_MOTION":14.40746671,"ECCENTRICITY":0.00027894,"INCLINATION":86.3695,"RA_OF_ASC_NODE":355.9969,"ARG_OF_PERICENTER":255.4984,"MEAN_ANOMALY":104.5906,"EPHEMERIS_TYPE":0,"CLASSIFICATION_TYPE":"U","NORAD_CAT_ID":34529,"ELEMENT_SET_NO":999,"REV_AT_EPOCH":89473,"BSTAR":0.00019282498,"MEAN_MOTION_DOT":6.36e-6,"MEAN_MOTION_DDOT":0},{"OBJECT_NAME":"IRIDIUM 33 DEB","OBJECT_ID":"1997-051JF","EPOCH":"2026-03-14T23:06:37.966752","MEAN_MOTION":14.4331301,"ECCENTRICITY":0.00357784,"INCLINATION":86.2787,"RA_OF_ASC_NODE":325.1624,"ARG_OF_PERICENTER":22.7197,"MEAN_ANOMALY":353.728,"EPHEMERIS_TYPE":0,"CLASSIFICATION_TYPE":"U","NORAD_CAT_ID":34538,"ELEMENT_SET_NO":999,"REV_AT_EPOCH":89086,"BSTAR":0.00083366283,"MEAN_MOTION_DOT":2.849e-5,"MEAN_MOTION_DDOT":0},{"OBJECT_NAME":"IRIDIUM 33 DEB","OBJECT_ID":"1997-051JH","EPOCH":"2026-03-14T23:37:53.430816","MEAN_MOTION":14.77534944,"ECCENTRICITY":0.00153273,"INCLINATION":86.3053,"RA_OF_ASC_NODE":265.3481,"ARG_OF_PERICENTER":203.1778,"MEAN_ANOMALY":285.4251,"EPHEMERIS_TYPE":0,"CLASSIFICATION_TYPE":"U","NORAD_CAT_ID":34540,"ELEMENT_SET_NO":999,"REV_AT_EPOCH":90382,"BSTAR":0.0017877291,"MEAN_MOTION_DOT":0.00012815,"MEAN_MOTION_DDOT":0},{"OBJECT_NAME":"IRIDIUM 33 DEB","OBJECT_ID":"1997-051JZ","EPOCH":"2026-03-15T04:47:29.106816","MEAN_MOTION":14.13495715,"ECCENTRICITY":0.01747181,"INCLINATION":86.3889,"RA_OF_ASC_NODE":244.5529,"ARG_OF_PERICENTER":6.0002,"MEAN_ANOMALY":354.3217,"EPHEMERIS_TYPE":0,"CLASSIFICATION_TYPE":"U","NORAD_CAT_ID":34648,"ELEMENT_SET_NO":999,"REV_AT_EPOCH":86266,"BSTAR":0.0031923624,"MEAN_MOTION_DOT":6.967e-5,"MEAN_MOTION_DDOT":0},{"OBJECT_NAME":"IRIDIUM 33 DEB","OBJECT_ID":"1997-051KC","EPOCH":"2026-03-15T07:57:53.973216","MEAN_MOTION":14.2737414,"ECCENTRICITY":0.0132025,"INCLINATION":86.2777,"RA_OF_ASC_NODE":101.1116,"ARG_OF_PERICENTER":265.1924,"MEAN_ANOMALY":93.4183,"EPHEMERIS_TYPE":0,"CLASSIFICATION_TYPE":"U","NORAD_CAT_ID":34651,"ELEMENT_SET_NO":999,"REV_AT_EPOCH":87216,"BSTAR":0.0027005078,"MEAN_MOTION_DOT":7.278e-5,"MEAN_MOTION_DDOT":0},{"OBJECT_NAME":"IRIDIUM 33 DEB","OBJECT_ID":"1997-051KD","EPOCH":"2026-03-14T09:00:28.128384","MEAN_MOTION":14.63009057,"ECCENTRICITY":0.00275244,"INCLINATION":86.3287,"RA_OF_ASC_NODE":299.1834,"ARG_OF_PERICENTER":347.6061,"MEAN_ANOMALY":137.0548,"EPHEMERIS_TYPE":0,"CLASSIFICATION_TYPE":"U","NORAD_CAT_ID":34652,"ELEMENT_SET_NO":999,"REV_AT_EPOCH":89823,"BSTAR":0.00074422029,"MEAN_MOTION_DOT":3.856e-5,"MEAN_MOTION_DDOT":0},{"OBJECT_NAME":"IRIDIUM 33 DEB","OBJECT_ID":"1997-051KM","EPOCH":"2026-03-14T18:30:50.840064","MEAN_MOTION":14.5548786,"ECCENTRICITY":0.0012517,"INCLINATION":86.3821,"RA_OF_ASC_NODE":356.986,"ARG_OF_PERICENTER":68.3037,"MEAN_ANOMALY":320.7898,"EPHEMERIS_TYPE":0,"CLASSIFICATION_TYPE":"U","NORAD_CAT_ID":34690,"ELEMENT_SET_NO":999,"REV_AT_EPOCH":89433,"BSTAR":0.00052154483,"MEAN_MOTION_DOT":2.292e-5,"MEAN_MOTION_DDOT":0},{"OBJECT_NAME":"IRIDIUM 33 DEB","OBJECT_ID":"1997-051KT","EPOCH":"2026-03-14T17:27:34.277184","MEAN_MOTION":14.72749612,"ECCENTRICITY":0.00563648,"INCLINATION":86.1838,"RA_OF_ASC_NODE":344.4772,"ARG_OF_PERICENTER":211.9151,"MEAN_ANOMALY":179.8114,"EPHEMERIS_TYPE":0,"CLASSIFICATION_TYPE":"U","NORAD_CAT_ID":34696,"ELEMENT_SET_NO":999,"REV_AT_EPOCH":88023,"BSTAR":0.0064518033,"MEAN_MOTION_DOT":0.00042468,"MEAN_MOTION_DDOT":0},{"OBJECT_NAME":"IRIDIUM 33 DEB","OBJECT_ID":"1997-051LJ","EPOCH":"2026-03-14T00:48:37.722816","MEAN_MOTION":14.40767802,"ECCENTRICITY":0.00142045,"INCLINATION":86.3445,"RA_OF_ASC_NODE":353.5892,"ARG_OF_PERICENTER":281.0432,"MEAN_ANOMALY":96.517,"EPHEMERIS_TYPE":0,"CLASSIFICATION_TYPE":"U","NORAD_CAT_ID":34765,"ELEMENT_SET_NO":999,"REV_AT_EPOCH":88928,"BSTAR":0.00043010903,"MEAN_MOTION_DOT":1.396e-5,"MEAN_MOTION_DDOT":0},{"OBJECT_NAME":"IRIDIUM 33 DEB","OBJECT_ID":"1997-051MH","EPOCH":"2026-03-15T01:36:30.783744","MEAN_MOTION":14.53089601,"ECCENTRICITY":0.00205465,"INCLINATION":86.3976,"RA_OF_ASC_NODE":11.1785,"ARG_OF_PERICENTER":140.4488,"MEAN_ANOMALY":356.1501,"EPHEMERIS_TYPE":0,"CLASSIFICATION_TYPE":"U","NORAD_CAT_ID":34833,"ELEMENT_SET_NO":999,"REV_AT_EPOCH":89055,"BSTAR":0.00093735605,"MEAN_MOTION_DOT":3.905e-5,"MEAN_MOTION_DDOT":0}]
