IRIDIUM 33 DEB          
1 34487U 97051GC  26073.70949245  .00000704  00000+0  20158-3 0  9995
2 34487  86.3474 332.8016 0030525 182.5259 206.2204 14.43387866895750
IRIDIUM 33 DEB          
1 34492U 97051GH  26073.37537129  .00010602  00000+0  35691-2 0  9993
2 34492  86.4713 297.5330 0183958 304.4987 179.6913 14.27869911863653
IRIDIUM 33 DEB          
1 34497U 97051GN  26073.81378485  .00002577  00000+0  99941-3 0  9996
2 34497  86.2824  13.0516 0081619  42.6537 346.7488 14.27811976881976
IRIDIUM 33 DEB          
1 34508U 97051GZ  26073.96633230  .00003842  00000+0  12076-2 0  9996
2 34508  86.3667  63.4913 0061927 229.5774 130.0013 14.39170517886351
IRIDIUM 33 DEB          
1 34521U 97051HN  26074.26096526  .00007705  00000+0  14416-2 0  9998
2 34521  86.3834 349.7819 0003388 358.1125   2.0074 14.64760482898265
IRIDIUM 33 DEB          
1 34525U 97051HS  26074.27537702  .00001285  00000+0  37660-3 0  9993
2 34525  86.3778   7.3385 0005774 124.7609 359.5576 14.43190466894221
IRIDIUM 33 DEB          
1 34529U 97051HW  26074.21539294  .00000636  00000+0  19282-3 0  9998
2 34529  86.3695 355.9969 0002789 255.4984 104.5906 14.40746671894737
IRIDIUM 33 DEB          
1 34538U 97051JF  26073.96293943  .00002849  00000+0  83366-3 0  9999
2 34538  86.2787 325.1624 0035778  22.7197 353.7280 14.43313010890863
IRIDIUM 33 DEB          
1 34540U 97051JH  26073.98464619  .00012815  00000+0  17877-2 0  9991
2 34540  86.3053 265.3481 0015327 203.1778 285.4251 14.77534944903825
IRIDIUM 33 DEB          
1 34648U 97051JZ  26074.19964244  .00006967  00000+0  31924-2 0  9993
2 34648  86.3889 244.5529 0174718   6.0002 354.3217 14.13495715862669
IRIDIUM 33 DEB          
1 34651U 97051KC  26074.33187469  .00007278  00000+0  27005-2 0  9990
2 34651  86.2777 101.1116 0132025 265.1924  93.4183 14.27374140872166
IRIDIUM 33 DEB          
1 34652U 97051KD  26073.37532556  .00003856  00000+0  74422-3 0  9999
2 34652  86.3287 299.1834 0027524 347.6061 137.0548 14.63009057898232
IRIDIUM 33 DEB          
1 34690U 97051KM  26073.77142176  .00002292  00000+0  52154-3 0  9991
2 34690  86.3821 356.9860 0012517  68.3037 320.7898 14.55487860894334
IRIDIUM 33 DEB          
1 34696U 97051KT  26073.72748006  .00042468  00000+0  64518-2 0  9991
2 34696  86.1838 344.4772 0056364 211.9151 179.8114 14.72749612880234
IRIDIUM 33 DEB          
1 34765U 97051LJ  26073.03376994  .00001396  00000+0  43011-3 0  9996
2 34765  86.3445 353.5892 0014204 281.0432  96.5170 14.40767802889285
IRIDIUM 33 DEB          
1 34833U 97051MH  26074.06702296  .00003905  00000+0  93736-3 0  9991
2 34833  86.3976  11.1785 0020546 140.4488 356.1501 14.53089601890556
